OBJECT_NAME,OBJECT_ID,EPOCH,MEAN_MOTION,ECCENTRICITY,INCLINATION,RA_OF_ASC_NODE,ARG_OF_PERICENTER,MEAN_ANOMALY,EPHEMERIS_TYPE,CLASSIFICATION_TYPE,NORAD_CAT_ID,ELEMENT_SET_NO,REV_AT_EPOCH,BSTAR,MEAN_MOTION_DOT,MEAN_MOTION_DDOT
STARLINK-37787,2026-145R,2026-07-13T01:25:08.317920,15.75172608,.00024,97.2835,40.8406,70.9961,289.1564,0,U,69692,999,284,.11862E-2,.180458E-2,0
STARLINK-37962,2026-145S,2026-07-13T01:22:35.751072,15.75182603,.0001924,97.2847,40.8440,78.4355,281.7126,0,U,69693,999,284,.1134E-2,.172415E-2,0
STARLINK-37953,2026-145T,2026-07-12T23:55:10.889184,15.75297436,.0001112,97.2837,40.7730,73.6264,286.5123,0,U,69694,999,283,.16355E-2,.252339E-2,0
STARLINK-37926,2026-145U,2026-07-13T01:25:38.678016,15.75170001,.0001974,97.2846,40.8408,80.8657,279.2832,0,U,69695,999,284,.92659E-3,.140253E-2,0
STARLINK-37959,2026-145V,2026-07-13T01:24:07.131168,15.75173010,.0001778,97.2848,40.8413,73.8020,286.3441,0,U,69696,999,284,.11548E-2,.175571E-2,0
STARLINK-37976,2026-145W,2026-07-13T01:20:02.893920,15.75238569,.0000439,97.2832,40.8465,349.2191,10.9064,0,U,69697,999,284,.6565E-3,.99142E-3,0
STARLINK-37912,2026-145X,2026-07-13T01:18:31.772160,15.75274156,.0001317,97.2840,40.8486,31.0813,329.0530,0,U,69698,999,284,.1028E-2,.156612E-2,0
STARLINK-37974,2026-145Y,2026-07-13T01:17:31.036416,15.75320930,.0001748,97.2835,40.8492,46.1339,314.0071,0,U,69699,999,284,.17711E-2,.274257E-2,0
STARLINK-37955,2026-145Z,2026-07-13T02:45:26.292096,15.75213493,.0001918,97.2842,40.9189,92.9542,267.1943,0,U,69700,999,285,.52163E-3,.78475E-3,0
STARLINK-38055,2026-147A,2026-07-13T01:55:36.128928,15.80909405,.0000859,97.2842,230.3440,102.1932,257.9432,0,U,69704,999,352,.13425E-2,.266151E-2,0
STARLINK-37898,2026-147B,2026-07-13T01:54:24.786720,15.80897557,.0000962,97.2846,230.3453,91.8654,268.2725,0,U,69705,999,352,.10008E-2,.196668E-2,0
STARLINK-37970,2026-147C,2026-07-13T01:53:19.818240,15.80888101,.0001282,97.2833,230.3462,104.5065,255.6346,0,U,69706,999,352,.78992E-3,.154379E-2,0
STARLINK-37975,2026-147D,2026-07-13T01:52:14.945664,15.80884304,.0000665,97.2842,230.3474,37.6587,322.4727,0,U,69707,999,352,.92423E-3,.181179E-2,0
STARLINK-37972,2026-147E,2026-07-13T01:51:10.141344,15.80985607,.0001416,97.2827,230.3483,131.9783,228.1606,0,U,69708,999,352,.17708E-2,.356013E-2,0
STARLINK-37963,2026-147F,2026-07-13T01:50:05.000928,15.80899599,.0000386,97.2834,230.3484,76.4176,283.7135,0,U,69709,999,352,.10895E-2,.214593E-2,0
STARLINK-37969,2026-147G,2026-07-13T01:49:00.117120,15.80894466,.0001376,97.2833,230.3502,120.6066,239.5338,0,U,69710,999,352,.96405E-3,.189256E-2,0
STARLINK-37956,2026-147H,2026-07-13T01:47:55.248000,15.80884385,.000119,97.2836,230.3520,106.0928,254.0471,0,U,69711,999,352,.84334E-3,.165002E-2,0
STARLINK-38043,2026-147J,2026-07-13T01:46:50.439360,15.80996319,.0001533,97.2837,230.3525,124.4004,235.7409,0,U,69712,999,352,.18611E-2,.375187E-2,0
STARLINK-38020,2026-147K,2026-07-13T01:45:45.393120,15.80908550,.0001844,97.2834,230.3535,120.1791,239.9660,0,U,69713,999,352,.9343E-3,.183409E-2,0
STARLINK-38059,2026-147L,2026-07-13T01:44:40.435872,15.80911690,.0001261,97.2835,230.3547,96.6243,263.5169,0,U,69714,999,352,.11954E-2,.236164E-2,0
STARLINK-38061,2026-147M,2026-07-12T13:34:22.569600,15.80946327,.000091,97.2850,229.8216,70.5343,289.6024,0,U,69715,999,344,.10183E-2,.200648E-2,0
STARLINK-38060,2026-147N,2026-07-13T01:42:30.705408,15.80878954,.0000713,97.2840,230.3572,66.2004,293.9339,0,U,69716,999,352,.10349E-2,.203365E-2,0
STARLINK-38040,2026-147P,2026-07-12T13:32:12.401952,15.80996736,.0000557,97.2846,229.8231,18.4300,341.6989,0,U,69717,999,344,.16918E-2,.339677E-2,0
STARLINK-37989,2026-147Q,2026-07-12T08:00:01.999872,15.80858469,.00013257,97.2834,229.5802,94.5508,37.9655,0,U,69718,999,337,-.51826548E-3,-.98494E-3,0
STARLINK-38039,2026-147R,2026-07-11T01:02:21.239232,15.81797917,.000484,97.2728,228.2092,174.3599,185.7725,0,U,69719,999,320,.19472E-2,.40894E-2,0
STARLINK-38003,2026-147S,2026-07-12T22:35:52.728000,15.80931223,.0001517,97.2828,230.2266,107.6188,252.5246,0,U,69720,999,350,.14716E-2,.292942E-2,0
STARLINK-38014,2026-147T,2026-07-12T13:27:52.826976,15.81002046,.0000843,97.2841,229.8266,50.1764,309.9579,0,U,69721,999,344,.18338E-2,.36956E-2,0
STARLINK-37915,2026-147U,2026-07-13T00:04:51.949920,15.80923484,.0001182,97.2823,230.2959,108.9793,251.1604,0,U,69722,999,351,.11491E-2,.226889E-2,0
STARLINK-38007,2026-147V,2026-07-13T03:10:40.715616,15.79494951,.0010022,97.2828,230.4277,113.0026,247.2300,0,U,69723,999,353,-.17424E-1,-.2683838E-1,0
STARLINK-38008,2026-147W,2026-07-13T01:33:51.234048,15.81027502,.000185,97.2825,230.3649,136.2991,223.8424,0,U,69724,999,352,.20246E-2,.410418E-2,0
